{
    "links": {
        "self": "http://www.neowsapp.com/rest/v1/neo/3610028?api_key=iIulBulltgU6a56xZRHN4H3l9WmuAYTsLGpBGhQ2"
    },
    "id": "3610028",
    "neo_reference_id": "3610028",
    "name": "(2012 TE53)",
    "designation": "2012 TE53",
    "nasa_jpl_url": "http://ssd.jpl.nasa.gov/sbdb.cgi?sstr=3610028",
    "absolute_magnitude_h": 26.5,
    "estimated_diameter": {
        "kilometers": {
            "estimated_diameter_min": 0.0133215567,
            "estimated_diameter_max": 0.0297879063
        },
        "meters": {
            "estimated_diameter_min": 13.3215566698,
            "estimated_diameter_max": 29.7879062798
        },
        "miles": {
            "estimated_diameter_min": 0.008277629,
            "estimated_diameter_max": 0.0185093411
        },
        "feet": {
            "estimated_diameter_min": 43.7058959846,
            "estimated_diameter_max": 97.7293544391
        }
    },
    "is_potentially_hazardous_asteroid": false,
    "close_approach_data": [
        {
            "close_approach_date": "2012-10-06",
            "close_approach_date_full": "2012-Oct-06 00:45",
            "epoch_date_close_approach": 1349484300000,
            "relative_velocity": {
                "kilometers_per_second": "10.146624981",
                "kilometers_per_hour": "36527.8499315957",
                "miles_per_hour": "22696.9854199962"
            },
            "miss_distance": {
                "astronomical": "0.0041224829",
                "lunar": "1.6036458481",
                "kilometers": "616714.660951423",
                "miles": "383208.7206907174"
            },
            "orbiting_body": "Earth"
        },
        {
            "close_approach_date": "2012-10-06",
            "close_approach_date_full": "2012-Oct-06 09:35",
            "epoch_date_close_approach": 1349516100000,
            "relative_velocity": {
                "kilometers_per_second": "10.6078988571",
                "kilometers_per_hour": "38188.4358854038",
                "miles_per_hour": "23728.8089533499"
            },
            "miss_distance": {
                "astronomical": "0.0040244078",
                "lunar": "1.5654946342",
                "kilometers": "602042.834891386",
                "miles": "374092.0707216868"
            },
            "orbiting_body": "Moon"
        },
        {
            "close_approach_date": "2019-11-07",
            "close_approach_date_full": "2019-Nov-07 18:12",
            "epoch_date_close_approach": 1573150320000,
            "relative_velocity": {
                "kilometers_per_second": "20.7662353601",
                "kilometers_per_hour": "74758.4472964691",
                "miles_per_hour": "46451.9918770755"
            },
            "miss_distance": {
                "astronomical": "0.3505482838",
                "lunar": "136.3632823982",
                "kilometers": "52441276.588635506",
                "miles": "32585498.2625457428"
            },
            "orbiting_body": "Earth"
        }
    ],
    "orbital_data": {
        "orbit_id": "4",
        "orbit_determination_date": "2017-04-06 08:48:43",
        "first_observation_date": "2012-10-08",
        "last_observation_date": "2012-10-10",
        "data_arc_in_days": 2,
        "observations_used": 25,
        "orbit_uncertainty": "7",
        "minimum_orbit_intersection": ".00391972",
        "jupiter_tisserand_invariant": "3.322",
        "epoch_osculation": "2459000.5",
        "eccentricity": ".5866148885280931",
        "semi_major_axis": "2.319717907419898",
        "inclination": "3.925172158237073",
        "ascending_node_longitude": "16.0772834311262",
        "orbital_period": "1290.479736555115",
        "perihelion_distance": ".9589368457421532",
        "perihelion_argument": "329.5109124040214",
        "aphelion_distance": "3.680498969097643",
        "perihelion_time": "2458763.380411347760",
        "mean_anomaly": "66.14830864580622",
        "mean_motion": ".2789660231016148",
        "equinox": "J2000",
        "orbit_class": {
            "orbit_class_type": "APO",
            "orbit_class_description": "Near-Earth asteroid orbits which cross the Earth’s orbit similar to that of 1862 Apollo",
            "orbit_class_range": "a (semi-major axis) > 1.0 AU; q (perihelion) < 1.017 AU"
        }
    },
    "is_sentry_object": false
}